start=new Date('2022-08-26T00:00:00.000Z').valueOf();
sats=[{"GP_ID":"211003005","FILE":"3547674","RA_OF_ASC_NODE":"186.6260","INCLINATION":"53.0547","TLE_LINE1":"1 45393U 20019AK  22237.69107295  .00002067  00000-0  15766-3 0  9994","REF_FRAME":"TEME","TLE_LINE2":"2 45393  53.0547 186.6260 0001856  45.9243 314.1899 15.06398468135033","REV_AT_EPOCH":"13503","CENTER_NAME":"EARTH","TIME_SYSTEM":"UTC","OBJECT_TYPE":"PAYLOAD","COUNTRY_CODE":"US","ELEMENT_SET_NO":"999","SEMIMAJOR_AXIS":"6925.353","MEAN_MOTION":"15.06398468","ARG_OF_PERICENTER":"45.9243","EPOCH":"2022-08-25T16:35:08.702880","ECCENTRICITY":"0.00018560","APOAPSIS":"548.504","DECAY_DATE":null,"PERIAPSIS":"545.933","SITE":"AFETR","LAUNCH_DATE":"2020-03-18","NORAD_CAT_ID":"45393","PERIOD":"95.592","MEAN_ELEMENT_THEORY":"SGP4","OBJECT_NAME":"STARLINK-1291","CLASSIFICATION_TYPE":"U","MEAN_ANOMALY":"314.1899","OBJECT_ID":"2020-019AK","EPHEMERIS_TYPE":"0","BSTAR":"0.00015766000000","MEAN_MOTION_DOT":"0.00002067","RCS_SIZE":"LARGE","MEAN_MOTION_DDOT":"0.0000000000000"},{"FILE":"3547674","GP_ID":"211003752","REF_FRAME":"TEME","TLE_LINE1":"1 45394U 20019AL  22237.58788055  .00002063  00000-0  15739-3 0  9998","RA_OF_ASC_NODE":"187.1016","INCLINATION":"53.0552","REV_AT_EPOCH":"13499","TLE_LINE2":"2 45394  53.0552 187.1016 0001345  79.8116 280.3024 15.06387502134998","TIME_SYSTEM":"UTC","CENTER_NAME":"EARTH","ELEMENT_SET_NO":"999","COUNTRY_CODE":"US","OBJECT_TYPE":"PAYLOAD","SEMIMAJOR_AXIS":"6925.387","EPOCH":"2022-08-25T14:06:32.879520","ARG_OF_PERICENTER":"79.8116","MEAN_MOTION":"15.06387502","DECAY_DATE":null,"ECCENTRICITY":"0.00013450","APOAPSIS":"548.183","LAUNCH_DATE":"2020-03-18","PERIAPSIS":"546.320","SITE":"AFETR","PERIOD":"95.593","NORAD_CAT_ID":"45394","OBJECT_NAME":"STARLINK-1292","MEAN_ELEMENT_THEORY":"SGP4","CLASSIFICATION_TYPE":"U","OBJECT_ID":"2020-019AL","MEAN_ANOMALY":"280.3024","MEAN_MOTION_DOT":"0.00002063","BSTAR":"0.00015739000000","EPHEMERIS_TYPE":"0","MEAN_MOTION_DDOT":"0.0000000000000","RCS_SIZE":"LARGE"},{"TLE_LINE2":"2 45395  53.0548 187.2472 0001426  74.9425 285.1721 15.06405451134430","REV_AT_EPOCH":"13443","FILE":"3547674","GP_ID":"211004497","TLE_LINE1":"1 45395U 20019AM  22237.55100780  .00000067  00000-0  23367-4 0  9998","RA_OF_ASC_NODE":"187.2472","INCLINATION":"53.0548","REF_FRAME":"TEME","SEMIMAJOR_AXIS":"6925.332","MEAN_MOTION":"15.06405451","EPOCH":"2022-08-25T13:13:27.073920","ARG_OF_PERICENTER":"74.9425","CENTER_NAME":"EARTH","TIME_SYSTEM":"UTC","OBJECT_TYPE":"PAYLOAD","COUNTRY_CODE":"US","ELEMENT_SET_NO":"999","NORAD_CAT_ID":"45395","PERIOD":"95.592","MEAN_ELEMENT_THEORY":"SGP4","OBJECT_NAME":"STARLINK-1297","DECAY_DATE":null,"APOAPSIS":"548.184","ECCENTRICITY":"0.00014260","SITE":"AFETR","PERIAPSIS":"546.209","LAUNCH_DATE":"2020-03-18","EPHEMERIS_TYPE":"0","BSTAR":"0.00002336700000","MEAN_MOTION_DOT":"0.00000067","RCS_SIZE":"LARGE","MEAN_MOTION_DDOT":"0.0000000000000","CLASSIFICATION_TYPE":"U","OBJECT_ID":"2020-019AM","MEAN_ANOMALY":"285.1721"},{"GP_ID":"211004242","FILE":"3547674","REF_FRAME":"TEME","RA_OF_ASC_NODE":"186.1398","INCLINATION":"53.0545","TLE_LINE1":"1 45396U 20019AN  22237.79796920  .00001247  00000-0  10256-3 0  9995","REV_AT_EPOCH":"13500","TLE_LINE2":"2 45396  53.0545 186.1398 0001538  80.0080 280.1083 15.06404806135005","TIME_SYSTEM":"UTC","CENTER_NAME":"EARTH","ELEMENT_SET_NO":"999","COUNTRY_CODE":"US","OBJECT_TYPE":"PAYLOAD","SEMIMAJOR_AXIS":"6925.334","ARG_OF_PERICENTER":"80.0080","EPOCH":"2022-08-25T19:09:04.538880","MEAN_MOTION":"15.06404806","APOAPSIS":"548.264","ECCENTRICITY":"0.00015380","DECAY_DATE":null,"LAUNCH_DATE":"2020-03-18","SITE":"AFETR","PERIAPSIS":"546.134","PERIOD":"95.592","NORAD_CAT_ID":"45396","OBJECT_NAME":"STARLINK-1303","MEAN_ELEMENT_THEORY":"SGP4","CLASSIFICATION_TYPE":"U","MEAN_ANOMALY":"280.1083","OBJECT_ID":"2020-019AN","BSTAR":"0.00010256000000","MEAN_MOTION_DOT":"0.00001247","EPHEMERIS_TYPE":"0","MEAN_MOTION_DDOT":"0.0000000000000","RCS_SIZE":"LARGE"},{"TLE_LINE2":"2 45397  53.0545 188.4666 0001489  83.0598 277.0561 15.06400067135035","REV_AT_EPOCH":"13503","TLE_LINE1":"1 45397U 20019AP  22237.27825258 -.00000229  00000-0  35469-5 0  9991","RA_OF_ASC_NODE":"188.4666","INCLINATION":"53.0545","REF_FRAME":"TEME","FILE":"3547226","GP_ID":"210969501","MEAN_MOTION":"15.06400067","ARG_OF_PERICENTER":"83.0598","EPOCH":"2022-08-25T06:40:41.022912","SEMIMAJOR_AXIS":"6925.348","COUNTRY_CODE":"US","OBJECT_TYPE":"PAYLOAD","ELEMENT_SET_NO":"999","CENTER_NAME":"EARTH","TIME_SYSTEM":"UTC","MEAN_ELEMENT_THEORY":"SGP4","OBJECT_NAME":"STARLINK-1307","NORAD_CAT_ID":"45397","PERIOD":"95.592","SITE":"AFETR","PERIAPSIS":"546.182","LAUNCH_DATE":"2020-03-18","DECAY_DATE":null,"ECCENTRICITY":"0.00014890","APOAPSIS":"548.245","RCS_SIZE":"LARGE","MEAN_MOTION_DDOT":"0.0000000000000","EPHEMERIS_TYPE":"0","MEAN_MOTION_DOT":"-0.00000229","BSTAR":"0.00000354690000","OBJECT_ID":"2020-019AP","MEAN_ANOMALY":"277.0561","CLASSIFICATION_TYPE":"U"},{"CLASSIFICATION_TYPE":"U","MEAN_ANOMALY":"277.9861","OBJECT_ID":"2020-019AQ","BSTAR":"0.00007364400000","MEAN_MOTION_DOT":"0.00000815","EPHEMERIS_TYPE":"0","MEAN_MOTION_DDOT":"0.0000000000000","RCS_SIZE":"LARGE","APOAPSIS":"548.353","ECCENTRICITY":"0.00015770","DECAY_DATE":null,"LAUNCH_DATE":"2020-03-18","PERIAPSIS":"546.169","SITE":"AFETR","PERIOD":"95.593","NORAD_CAT_ID":"45398","OBJECT_NAME":"STARLINK-1312","MEAN_ELEMENT_THEORY":"SGP4","TIME_SYSTEM":"UTC","CENTER_NAME":"EARTH","ELEMENT_SET_NO":"999","COUNTRY_CODE":"US","OBJECT_TYPE":"PAYLOAD","SEMIMAJOR_AXIS":"6925.396","ARG_OF_PERICENTER":"82.1307","EPOCH":"2022-08-25T06:30:05.427360","MEAN_MOTION":"15.06384580","GP_ID":"210968250","FILE":"3547226","REF_FRAME":"TEME","RA_OF_ASC_NODE":"188.5094","INCLINATION":"53.0555","TLE_LINE1":"1 45398U 20019AQ  22237.27089615  .00000815  00000-0  73644-4 0  9997","REV_AT_EPOCH":"13496","TLE_LINE2":"2 45398  53.0555 188.5094 0001577  82.1307 277.9861 15.06384580134963"},{"REV_AT_EPOCH":"13515","TLE_LINE2":"2 45399  53.0541 178.6126 0001655  68.9958 291.1208 15.06399376135150","GP_ID":"210982474","FILE":"3547556","REF_FRAME":"TEME","RA_OF_ASC_NODE":"178.6126","INCLINATION":"53.0541","TLE_LINE1":"1 45399U 20019AR  22237.24599865 -.00000492  00000-0 -14150-4 0  9998","SEMIMAJOR_AXIS":"6925.350","EPOCH":"2022-08-25T05:54:14.283360","ARG_OF_PERICENTER":"68.9958","MEAN_MOTION":"15.06399376","TIME_SYSTEM":"UTC","CENTER_NAME":"EARTH","ELEMENT_SET_NO":"999","COUNTRY_CODE":"US","OBJECT_TYPE":"PAYLOAD","PERIOD":"95.592","NORAD_CAT_ID":"45399","OBJECT_NAME":"STARLINK-1255","MEAN_ELEMENT_THEORY":"SGP4","ECCENTRICITY":"0.00016550","APOAPSIS":"548.362","DECAY_DATE":null,"LAUNCH_DATE":"2020-03-18","PERIAPSIS":"546.069","SITE":"AFETR","MEAN_MOTION_DOT":"-0.00000492","BSTAR":"-0.00001415000000","EPHEMERIS_TYPE":"0","MEAN_MOTION_DDOT":"0.0000000000000","RCS_SIZE":"LARGE","CLASSIFICATION_TYPE":"U","MEAN_ANOMALY":"291.1208","OBJECT_ID":"2020-019AR"},{"OBJECT_ID":"2020-019AS","MEAN_ANOMALY":"288.1969","CLASSIFICATION_TYPE":"U","MEAN_MOTION_DDOT":"0.0000000000000","RCS_SIZE":"LARGE","BSTAR":"0.00002687100000","MEAN_MOTION_DOT":"0.00000119","EPHEMERIS_TYPE":"0","LAUNCH_DATE":"2020-03-18","SITE":"AFETR","PERIAPSIS":"546.194","DECAY_DATE":null,"ECCENTRICITY":"0.00014540","APOAPSIS":"548.208","OBJECT_NAME":"STARLINK-1213","MEAN_ELEMENT_THEORY":"SGP4","PERIOD":"95.592","NORAD_CAT_ID":"45400","ELEMENT_SET_NO":"999","COUNTRY_CODE":"US","OBJECT_TYPE":"PAYLOAD","TIME_SYSTEM":"UTC","CENTER_NAME":"EARTH","ARG_OF_PERICENTER":"71.9178","EPOCH":"2022-08-25T06:15:27.562752","MEAN_MOTION":"15.06404225","SEMIMAJOR_AXIS":"6925.336","REF_FRAME":"TEME","TLE_LINE1":"1 45400U 20019AS  22237.26073568  .00000119  00000-0  26871-4 0  9997","RA_OF_ASC_NODE":"178.5553","INCLINATION":"53.0553","FILE":"3547226","GP_ID":"210969251","REV_AT_EPOCH":"13508","TLE_LINE2":"2 45400  53.0553 178.5553 0001454  71.9178 288.1969 15.06404225135086"},{"TLE_LINE2":"2 45401  53.0553 178.5823 0001621  63.2494 296.8661 15.06396297135150","REV_AT_EPOCH":"13515","INCLINATION":"53.0553","RA_OF_ASC_NODE":"178.5823","TLE_LINE1":"1 45401U 20019AT  22237.25705897 -.00000500  00000-0 -14651-4 0  9993","REF_FRAME":"TEME","GP_ID":"210970000","FILE":"3547226","MEAN_MOTION":"15.06396297","ARG_OF_PERICENTER":"63.2494","EPOCH":"2022-08-25T06:10:09.895008","SEMIMAJOR_AXIS":"6925.360","COUNTRY_CODE":"US","OBJECT_TYPE":"PAYLOAD","ELEMENT_SET_NO":"999","CENTER_NAME":"EARTH","TIME_SYSTEM":"UTC","MEAN_ELEMENT_THEORY":"SGP4","OBJECT_NAME":"STARLINK-1256","NORAD_CAT_ID":"45401","PERIOD":"95.592","PERIAPSIS":"546.102","SITE":"AFETR","LAUNCH_DATE":"2020-03-18","ECCENTRICITY":"0.00016210","APOAPSIS":"548.348","DECAY_DATE":null,"RCS_SIZE":"LARGE","MEAN_MOTION_DDOT":"0.0000000000000","EPHEMERIS_TYPE":"0","MEAN_MOTION_DOT":"-0.00000500","BSTAR":"-0.00001465100000","MEAN_ANOMALY":"296.8661","OBJECT_ID":"2020-019AT","CLASSIFICATION_TYPE":"U"},{"ECCENTRICITY":"0.00015600","APOAPSIS":"548.297","DECAY_DATE":null,"LAUNCH_DATE":"2020-03-18","SITE":"AFETR","PERIAPSIS":"546.136","PERIOD":"95.592","NORAD_CAT_ID":"45402","OBJECT_NAME":"STARLINK-1257","MEAN_ELEMENT_THEORY":"SGP4","CLASSIFICATION_TYPE":"U","MEAN_ANOMALY":"290.2982","OBJECT_ID":"2020-019AU","MEAN_MOTION_DOT":"-0.00000587","BSTAR":"-0.00002047900000","EPHEMERIS_TYPE":"0","MEAN_MOTION_DDOT":"0.0000000000000","RCS_SIZE":"LARGE","GP_ID":"210968750","FILE":"3547226","REF_FRAME":"TEME","RA_OF_ASC_NODE":"179.1811","INCLINATION":"53.0551","TLE_LINE1":"1 45402U 20019AU  22237.11973191 -.00000587  00000-0 -20479-4 0  9993","REV_AT_EPOCH":"13514","TLE_LINE2":"2 45402  53.0551 179.1811 0001560  69.8175 290.2982 15.06399122135146","TIME_SYSTEM":"UTC","CENTER_NAME":"EARTH","ELEMENT_SET_NO":"999","OBJECT_TYPE":"PAYLOAD","COUNTRY_CODE":"US","SEMIMAJOR_AXIS":"6925.351","ARG_OF_PERICENTER":"69.8175","EPOCH":"2022-08-25T02:52:24.837024","MEAN_MOTION":"15.06399122"}];
